{
  "name": "SATGUS",
  "line1": "1 62713U 25009DJ  26181.19418610  .00005807  00000+0  45513-3 0  9993",
  "line2": "2 62713  97.6887 262.4431 0007347  90.5652 269.6414 15.01342647 79513",
  "fetched_at": "2026-07-01T00:49:12.134403+00:00"
}